[{"OBJECT_NAME":"ONEWEB-0342","OBJECT_ID":"2021-083Y","EPOCH":"2025-10-22T04:06:59.567328","MEAN_MOTION":13.207709,"ECCENTRICITY":0.0001923,"INCLINATION":87.9204,"RA_OF_ASC_NODE":321.9019,"ARG_OF_PERICENTER":98.1366,"MEAN_ANOMALY":261.9986,"EPHEMERIS_TYPE":0,"CLASSIFICATION_TYPE":"U","NORAD_CAT_ID":49208,"ELEMENT_SET_NO":999,"REV_AT_EPOCH":20536,"BSTAR":0.0001772,"MEAN_MOTION_DOT":8.5e-7,"MEAN_MOTION_DDOT":0},{"OBJECT_NAME":"ONEWEB-0343","OBJECT_ID":"2021-083Z","EPOCH":"2025-10-22T04:48:18.144000","MEAN_MOTION":13.18683472,"ECCENTRICITY":0.0002361,"INCLINATION":87.9233,"RA_OF_ASC_NODE":22.7169,"ARG_OF_PERICENTER":102.4983,"MEAN_ANOMALY":257.6413,"EPHEMERIS_TYPE":0,"CLASSIFICATION_TYPE":"U","NORAD_CAT_ID":49209,"ELEMENT_SET_NO":999,"REV_AT_EPOCH":19867,"BSTAR":0.0003584,"MEAN_MOTION_DOT":1.54e-6,"MEAN_MOTION_DDOT":0},{"OBJECT_NAME":"ONEWEB-0344","OBJECT_ID":"2021-083AA","EPOCH":"2025-10-22T03:23:05.640864","MEAN_MOTION":13.13468307,"ECCENTRICITY":0.0002141,"INCLINATION":87.9031,"RA_OF_ASC_NODE":7.5776,"ARG_OF_PERICENTER":92.1977,"MEAN_ANOMALY":267.9397,"EPHEMERIS_TYPE":0,"CLASSIFICATION_TYPE":"U","NORAD_CAT_ID":49210,"ELEMENT_SET_NO":999,"REV_AT_EPOCH":19964,"BSTAR":1.026e-5,"MEAN_MOTION_DOT":1.6e-7,"MEAN_MOTION_DDOT":0},{"OBJECT_NAME":"ONEWEB-0345","OBJECT_ID":"2021-083AB","EPOCH":"2025-10-22T05:00:36.575424","MEAN_MOTION":13.13471651,"ECCENTRICITY":0.0002182,"INCLINATION":87.9039,"RA_OF_ASC_NODE":7.52,"ARG_OF_PERICENTER":94.5075,"MEAN_ANOMALY":265.6304,"EPHEMERIS_TYPE":0,"CLASSIFICATION_TYPE":"U","NORAD_CAT_ID":49211,"ELEMENT_SET_NO":999,"REV_AT_EPOCH":19966,"BSTAR":0.00068118,"MEAN_MOTION_DOT":2.62e-6,"MEAN_MOTION_DDOT":0},{"OBJECT_NAME":"ONEWEB-0346","OBJECT_ID":"2021-083AC","EPOCH":"2025-10-22T04:43:38.053344","MEAN_MOTION":13.18685828,"ECCENTRICITY":0.0001366,"INCLINATION":87.9234,"RA_OF_ASC_NODE":22.7342,"ARG_OF_PERICENTER":85.104,"MEAN_ANOMALY":275.0248,"EPHEMERIS_TYPE":0,"CLASSIFICATION_TYPE":"U","NORAD_CAT_ID":49212,"ELEMENT_SET_NO":999,"REV_AT_EPOCH":19861,"BSTAR":0.00033191,"MEAN_MOTION_DOT":1.44e-6,"MEAN_MOTION_DDOT":0},{"OBJECT_NAME":"ONEWEB-0348","OBJECT_ID":"2021-083AD","EPOCH":"2025-10-22T03:53:21.380928","MEAN_MOTION":13.20771121,"ECCENTRICITY":0.0002018,"INCLINATION":87.92,"RA_OF_ASC_NODE":321.9149,"ARG_OF_PERICENTER":77.0444,"MEAN_ANOMALY":283.0915,"EPHEMERIS_TYPE":0,"CLASSIFICATION_TYPE":"U","NORAD_CAT_ID":49213,"ELEMENT_SET_NO":999,"REV_AT_EPOCH":20539,"BSTAR":-5.6679e-5,"MEAN_MOTION_DOT":-1.0e-7,"MEAN_MOTION_DDOT":0},{"OBJECT_NAME":"ONEWEB-0350","OBJECT_ID":"2021-083AE","EPOCH":"2025-10-22T03:24:18.794016","MEAN_MOTION":13.13467622,"ECCENTRICITY":0.0002003,"INCLINATION":87.9054,"RA_OF_ASC_NODE":7.5287,"ARG_OF_PERICENTER":92.2321,"MEAN_ANOMALY":267.9037,"EPHEMERIS_TYPE":0,"CLASSIFICATION_TYPE":"U","NORAD_CAT_ID":49214,"ELEMENT_SET_NO":999,"REV_AT_EPOCH":19968,"BSTAR":-2.0877e-5,"MEAN_MOTION_DOT":5.0e-8,"MEAN_MOTION_DDOT":0},{"OBJECT_NAME":"ONEWEB-0351","OBJECT_ID":"2021-083AF","EPOCH":"2025-10-22T03:44:02.728032","MEAN_MOTION":13.20769999,"ECCENTRICITY":0.0002569,"INCLINATION":87.9208,"RA_OF_ASC_NODE":321.9073,"ARG_OF_PERICENTER":108.8809,"MEAN_ANOMALY":251.2603,"EPHEMERIS_TYPE":0,"CLASSIFICATION_TYPE":"U","NORAD_CAT_ID":49215,"ELEMENT_SET_NO":999,"REV_AT_EPOCH":20535,"BSTAR":-0.00056104,"MEAN_MOTION_DOT":-2.15e-6,"MEAN_MOTION_DDOT":0},{"OBJECT_NAME":"ONEWEB-0352","OBJECT_ID":"2021-083AG","EPOCH":"2025-10-22T04:45:58.333248","MEAN_MOTION":13.13472116,"ECCENTRICITY":0.0002159,"INCLINATION":87.9029,"RA_OF_ASC_NODE":7.5469,"ARG_OF_PERICENTER":109.5505,"MEAN_ANOMALY":250.5857,"EPHEMERIS_TYPE":0,"CLASSIFICATION_TYPE":"U","NORAD_CAT_ID":49216,"ELEMENT_SET_NO":999,"REV_AT_EPOCH":19978,"BSTAR":0.0011086,"MEAN_MOTION_DOT":4.18e-6,"MEAN_MOTION_DDOT":0},{"OBJECT_NAME":"ONEWEB-0354","OBJECT_ID":"2021-083AH","EPOCH":"2025-10-22T02:31:32.514816","MEAN_MOTION":13.20770255,"ECCENTRICITY":0.0002002,"INCLINATION":87.9212,"RA_OF_ASC_NODE":321.9161,"ARG_OF_PERICENTER":86.7225,"MEAN_ANOMALY":273.4137,"EPHEMERIS_TYPE":0,"CLASSIFICATION_TYPE":"U","NORAD_CAT_ID":49217,"ELEMENT_SET_NO":999,"REV_AT_EPOCH":20538,"BSTAR":1.8824e-5,"MEAN_MOTION_DOT":2.1e-7,"MEAN_MOTION_DDOT":0},{"OBJECT_NAME":"ONEWEB-0355","OBJECT_ID":"2021-083AJ","EPOCH":"2025-10-22T03:37:54.912864","MEAN_MOTION":13.13468015,"ECCENTRICITY":0.0002058,"INCLINATION":87.9039,"RA_OF_ASC_NODE":7.5667,"ARG_OF_PERICENTER":100.0605,"MEAN_ANOMALY":260.0756,"EPHEMERIS_TYPE":0,"CLASSIFICATION_TYPE":"U","NORAD_CAT_ID":49218,"ELEMENT_SET_NO":999,"REV_AT_EPOCH":19965,"BSTAR":-0.00087436,"MEAN_MOTION_DOT":-3.07e-6,"MEAN_MOTION_DDOT":0},{"OBJECT_NAME":"ONEWEB-0357","OBJECT_ID":"2021-083AK","EPOCH":"2025-10-22T04:16:04.944864","MEAN_MOTION":13.20771081,"ECCENTRICITY":0.0002044,"INCLINATION":87.9206,"RA_OF_ASC_NODE":321.8992,"ARG_OF_PERICENTER":95.4722,"MEAN_ANOMALY":264.6645,"EPHEMERIS_TYPE":0,"CLASSIFICATION_TYPE":"U","NORAD_CAT_ID":49219,"ELEMENT_SET_NO":999,"REV_AT_EPOCH":20539,"BSTAR":4.3175e-5,"MEAN_MOTION_DOT":3.1e-7,"MEAN_MOTION_DDOT":0},{"OBJECT_NAME":"ONEWEB-0332","OBJECT_ID":"2021-090A","EPOCH":"2025-10-22T04:45:35.432928","MEAN_MOTION":13.14503805,"ECCENTRICITY":0.0001888,"INCLINATION":87.9016,"RA_OF_ASC_NODE":337.1309,"ARG_OF_PERICENTER":103.7839,"MEAN_ANOMALY":256.3501,"EPHEMERIS_TYPE":0,"CLASSIFICATION_TYPE":"U","NORAD_CAT_ID":49279,"ELEMENT_SET_NO":999,"REV_AT_EPOCH":19631,"BSTAR":8.4481e-5,"MEAN_MOTION_DOT":4.4e-7,"MEAN_MOTION_DDOT":0},{"OBJECT_NAME":"ONEWEB-0347","OBJECT_ID":"2021-090B","EPOCH":"2025-10-22T04:02:26.231424","MEAN_MOTION":13.20770575,"ECCENTRICITY":0.0001632,"INCLINATION":87.9204,"RA_OF_ASC_NODE":321.9144,"ARG_OF_PERICENTER":103.313,"MEAN_ANOMALY":256.8185,"EPHEMERIS_TYPE":0,"CLASSIFICATION_TYPE":"U","NORAD_CAT_ID":49280,"ELEMENT_SET_NO":999,"REV_AT_EPOCH":19962,"BSTAR":-1.4963e-5,"MEAN_MOTION_DOT":7.0e-8,"MEAN_MOTION_DDOT":0},{"OBJECT_NAME":"ONEWEB-0349","OBJECT_ID":"2021-090C","EPOCH":"2025-10-22T02:58:47.961408","MEAN_MOTION":13.20769674,"ECCENTRICITY":0.0001954,"INCLINATION":87.9202,"RA_OF_ASC_NODE":321.9228,"ARG_OF_PERICENTER":95.7084,"MEAN_ANOMALY":264.4272,"EPHEMERIS_TYPE":0,"CLASSIFICATION_TYPE":"U","NORAD_CAT_ID":49281,"ELEMENT_SET_NO":999,"REV_AT_EPOCH":19840,"BSTAR":9.717e-6,"MEAN_MOTION_DOT":1.7e-7,"MEAN_MOTION_DDOT":0},{"OBJECT_NAME":"ONEWEB-0353","OBJECT_ID":"2021-090D","EPOCH":"2025-10-22T04:34:09.899040","MEAN_MOTION":13.14503438,"ECCENTRICITY":0.00018,"INCLINATION":87.902,"RA_OF_ASC_NODE":337.1145,"ARG_OF_PERICENTER":105.7448,"MEAN_ANOMALY":254.388,"EPHEMERIS_TYPE":0,"CLASSIFICATION_TYPE":"U","NORAD_CAT_ID":49282,"ELEMENT_SET_NO":999,"REV_AT_EPOCH":19631,"BSTAR":0.00076225,"MEAN_MOTION_DOT":2.95e-6,"MEAN_MOTION_DDOT":0},{"OBJECT_NAME":"ONEWEB-0356","OBJECT_ID":"2021-090E","EPOCH":"2025-10-22T02:56:32.277984","MEAN_MOTION":13.20770167,"ECCENTRICITY":0.0001049,"INCLINATION":87.92,"RA_OF_ASC_NODE":321.9142,"ARG_OF_PERICENTER":77.1731,"MEAN_ANOMALY":282.9519,"EPHEMERIS_TYPE":0,"CLASSIFICATION_TYPE":"U","NORAD_CAT_ID":49283,"ELEMENT_SET_NO":999,"REV_AT_EPOCH":19840,"BSTAR":7.3196e-5,"MEAN_MOTION_DOT":4.3e-7,"MEAN_MOTION_DDOT":0}]
