ONEWEB-0342             
1 49208U 21083Y   25295.17152277  .00000085  00000+0  17720-3 0  9994
2 49208  87.9204 321.9019 0001923  98.1366 261.9986 13.20770900205364
ONEWEB-0343             
1 49209U 21083Z   25295.20021000  .00000154  00000+0  35840-3 0  9998
2 49209  87.9233  22.7169 0002361 102.4983 257.6413 13.18683472198676
ONEWEB-0344             
1 49210U 21083AA  25295.14103751  .00000016  00000+0  10260-4 0  9994
2 49210  87.9031   7.5776 0002141  92.1977 267.9397 13.13468307199649
ONEWEB-0345             
1 49211U 21083AB  25295.20875666  .00000262  00000+0  68118-3 0  9990
2 49211  87.9039   7.5200 0002182  94.5075 265.6304 13.13471651199661
ONEWEB-0346             
1 49212U 21083AC  25295.19696821  .00000144  00000+0  33191-3 0  9995
2 49212  87.9234  22.7342 0001366  85.1040 275.0248 13.18685828198610
ONEWEB-0348             
1 49213U 21083AD  25295.16205302 -.00000010  00000+0 -56679-4 0  9994
2 49213  87.9200 321.9149 0002018  77.0444 283.0915 13.20771121205395
ONEWEB-0350             
1 49214U 21083AE  25295.14188419  .00000005  00000+0 -20877-4 0  9996
2 49214  87.9054   7.5287 0002003  92.2321 267.9037 13.13467622199680
ONEWEB-0351             
1 49215U 21083AF  25295.15558713 -.00000215  00000+0 -56104-3 0  9991
2 49215  87.9208 321.9073 0002569 108.8809 251.2603 13.20769999205357
ONEWEB-0352             
1 49216U 21083AG  25295.19859182  .00000418  00000+0  11086-2 0  9992
2 49216  87.9029   7.5469 0002159 109.5505 250.5857 13.13472116199787
ONEWEB-0354             
1 49217U 21083AH  25295.10523744  .00000021  00000+0  18824-4 0  9995
2 49217  87.9212 321.9161 0002002  86.7225 273.4137 13.20770255205388
ONEWEB-0355             
1 49218U 21083AJ  25295.15133001 -.00000307  00000+0 -87436-3 0  9997
2 49218  87.9039   7.5667 0002058 100.0605 260.0756 13.13468015199658
ONEWEB-0357             
1 49219U 21083AK  25295.17783501  .00000031  00000+0  43175-4 0  9991
2 49219  87.9206 321.8992 0002044  95.4722 264.6645 13.20771081205394
ONEWEB-0332             
1 49279U 21090A   25295.19832677  .00000044  00000+0  84481-4 0  9995
2 49279  87.9016 337.1309 0001888 103.7839 256.3501 13.14503805196318
ONEWEB-0347             
1 49280U 21090B   25295.16835916  .00000007  00000+0 -14963-4 0  9991
2 49280  87.9204 321.9144 0001632 103.3130 256.8185 13.20770575199621
ONEWEB-0349             
1 49281U 21090C   25295.12416622  .00000017  00000+0  97170-5 0  9999
2 49281  87.9202 321.9228 0001954  95.7084 264.4272 13.20769674198407
ONEWEB-0353             
1 49282U 21090D   25295.19039235  .00000295  00000+0  76225-3 0  9992
2 49282  87.9020 337.1145 0001800 105.7448 254.3880 13.14503438196317
ONEWEB-0356             
1 49283U 21090E   25295.12259581  .00000043  00000+0  73196-4 0  9990
2 49283  87.9200 321.9142 0001049  77.1731 282.9519 13.20770167198408
